{
  "type": "FeatureCollection",
  "features": [
    {
      "type": "Feature",
      "geometry": {
        "type": "Point",
        "coordinates": [
          22.2,
          55.1
        ]
      },
      "properties": {
        "source": "DIRECT_FEED",
        "feed_name": "Politico Europe",
        "kind": "news_direct",
        "type": "News",
        "time": "2026-10-03T12:50:53Z",
        "title": "Sandu slams Russia as attack debris hits Moldova in latest airspace violation",
        "description": "Moldovan President Maia Sandu on Saturday hit out at Moscow after saying debris from five Russian air attack weapons violated the country&#8217;s airspace and exploded on the country&#8217;s territory. &#8220;I condemn Russia&#8217;s attack on Ukraine this morning. Its war is dangerously reaching Moldova,&#8221; she wrote on X . &#8220;Russian air attack weapons, including Banderol missiles and drones, violated our airspace and exploded on our soil.&#8221; In all, three missiles and two drones flew over the country between 7.45 a.m. and 8 a.m., with fragments later found in the country&#8217;s eastern districts of Hincesti, Anenii Noi and Causeni. The police were dispatched to secure the debris, which caused a fire to break out but no casualties. Russian attacks in Ukraine killed at least ",
        "url": "https://www.politico.eu/article/maia-sandu-slams-russia-as-attack-debris-hits-moldova-in-latest-airspace-violation/?utm_source=RSS_Feed&#038;utm_medium=RSS&#038;utm_campaign=RSS_Syndication",
        "country_hint": "Lithuania",
        "relation_hits": [
          "Russia",
          "Russian",
          "Belarus",
          "NATO",
          "EU"
        ],
        "category": "transport",
        "impact_mult": 1.3600000000000003,
        "incident_family": "transport",
        "incident_subcategory": "aviation",
        "incident_subtype": "airport_closure",
        "incident_object": "critical_infrastructure",
        "incident_action": "closed",
        "incident_actor": "russia",
        "incident_target": "transport",
        "severity": "critical",
        "classification_confidence": 0.98,
        "matched_rule_id": "TRANSPORT.AVIATION.CLOSURE",
        "article_role": "incident",
        "actual_incident": true,
        "risk_eligible": true,
        "fingerprint": {
          "country": "Lithuania",
          "family": "transport",
          "subcategory": "aviation",
          "subtype": "airport_closure",
          "object": "critical_infrastructure",
          "action": "closed",
          "actor": "russia",
          "target": "transport",
          "place": "Lithuania",
          "event_date": "2026-10-03",
          "hash": "eaee8b35b29db3173c80ef25"
        },
        "classification_source": "security_classifier",
        "classifier_version": "1.0.1",
        "taxonomy_version": "1.0.0",
        "rejection_reason": null
      }
    },
    {
      "type": "Feature",
      "geometry": {
        "type": "Point",
        "coordinates": [
          19.15,
          52.1
        ]
      },
      "properties": {
        "source": "DIRECT_FEED",
        "feed_name": "Politico Europe",
        "kind": "news_direct",
        "type": "News",
        "time": "2026-09-30T15:13:21Z",
        "title": "&#8216;No way they can beat us&#8217;: Rutte rebuffs Russian nuclear threats to NATO",
        "description": "BRUSSELS — NATO Secretary-General Mark Rutte on Wednesday issued a strong rebuke to Russia after Moscow sent a letter to the alliance threatening nuclear escalation over NATO activity near its border. &#8220;We had to reply and make clear to [Russia] that NATO is a defensive alliance &#8230; and stop the war in Ukraine and stop the nuclear threats because it&#8217;s not helpful,&#8221; Rutte said at a security summit in Brussels. &#8220;NATO is so much stronger than Russia is, so there&#8217;s no way they can ever beat us.&#8221; &#8220;The best way to deal with this is to have a little bit of calm,&#8221; he added. &#8220;That&#8217;s the message: calm, carry on, keep the support for Ukraine going — that&#8217;s how we deal with it.&#8221; Rutte&#8217;s unusually strong remarks underscore",
        "url": "https://www.politico.eu/article/no-way-they-can-beat-us-mark-rutte-rebuffs-russian-nuclear-threats-to-nato/?utm_source=RSS_Feed&#038;utm_medium=RSS&#038;utm_campaign=RSS_Syndication",
        "country_hint": "Poland",
        "relation_hits": [
          "Ukraine",
          "Russia",
          "Russian",
          "Lithuania",
          "EU",
          "NATO"
        ],
        "category": "air",
        "impact_mult": 1.12,
        "incident_family": "air",
        "incident_subcategory": "aircraft",
        "incident_subtype": "military_aircraft_incident",
        "incident_object": "military_aircraft",
        "incident_action": "impact",
        "incident_actor": "russia",
        "incident_target": "unknown",
        "severity": "medium",
        "classification_confidence": 0.82,
        "matched_rule_id": "AIR.AIRCRAFT.INCIDENT",
        "article_role": "incident",
        "actual_incident": true,
        "risk_eligible": true,
        "fingerprint": {
          "country": "Poland",
          "family": "air",
          "subcategory": "aircraft",
          "subtype": "military_aircraft_incident",
          "object": "military_aircraft",
          "action": "impact",
          "actor": "russia",
          "target": "unknown",
          "place": "Poland",
          "event_date": "2026-09-30",
          "hash": "6d3585ccf6b29cee2bca79e4"
        },
        "classification_source": "security_classifier",
        "classifier_version": "1.0.1",
        "taxonomy_version": "1.0.0",
        "rejection_reason": null
      }
    },
    {
      "type": "Feature",
      "geometry": {
        "type": "Point",
        "coordinates": [
          22.2,
          55.1
        ]
      },
      "properties": {
        "source": "DIRECT_FEED",
        "feed_name": "The Guardian World",
        "kind": "news_direct",
        "type": "News",
        "time": "2026-09-29T15:03:15Z",
        "title": "‘We will not be intimidated,’ says Estonian PM after attributing recent arson attack to Russia – as it happened",
        "description": "&lt;p&gt;Kristen Michal says attack ‘against Milrem Robotics was ordered by Russian special services’, after Kremlin denies involvement&lt;/p&gt;&lt;p&gt;&lt;strong&gt;Rutte begins by recalling a drone shot down in Lithuanian airspace by Nato fighter jets two weeks ago.&lt;/strong&gt;&lt;/p&gt;&lt;p&gt;He says “the repeated drone incidents along our eastern flank showed the evolving nature of the threat, and we are strengthening our integrated air and missile defence.”&lt;/p&gt;&lt;p&gt;&lt;em&gt;“We are adapting and reinforcing our posture against drones.”&lt;/em&gt;&lt;/p&gt; &lt;a href=\"https://www.theguardian.com/world/live/2026/sep/29/ukraine-russia-war-odesa-overnight-lithuania-mark-rutte-europe-latest-news-updates\"&gt;Continue reading...&lt;/a&gt;",
        "url": "https://www.theguardian.com/world/live/2026/sep/29/ukraine-russia-war-odesa-overnight-lithuania-mark-rutte-europe-latest-news-updates",
        "country_hint": "Lithuania",
        "relation_hits": [
          "Russia",
          "Russian",
          "NATO",
          "EU"
        ],
        "category": "air",
        "impact_mult": 1.2400000000000002,
        "incident_family": "air",
        "incident_subcategory": "missile",
        "incident_subtype": "missile_interception",
        "incident_object": "missile",
        "incident_action": "shot_down",
        "incident_actor": "russia",
        "incident_target": "unknown",
        "severity": "high",
        "classification_confidence": 0.82,
        "matched_rule_id": "AIR.MISSILE.INTERCEPT",
        "article_role": "incident",
        "actual_incident": true,
        "risk_eligible": true,
        "fingerprint": {
          "country": "Lithuania",
          "family": "air",
          "subcategory": "missile",
          "subtype": "missile_interception",
          "object": "missile",
          "action": "shot_down",
          "actor": "russia",
          "target": "unknown",
          "place": "Lithuania",
          "event_date": "2026-09-29",
          "hash": "2633568b21e989ebda3a8482"
        },
        "classification_source": "security_classifier",
        "classifier_version": "1.0.1",
        "taxonomy_version": "1.0.0",
        "rejection_reason": null
      }
    }
  ]
}