{
  "type": "FeatureCollection",
  "features": [
    {
      "type": "Feature",
      "geometry": {
        "type": "Point",
        "coordinates": [
          27.75,
          56.25
        ]
      },
      "properties": {
        "type": "early_warning",
        "escalation": 100.0,
        "cell_deg": 0.5,
        "neighbor_active": 0,
        "recent": 2.16,
        "baseline": 0.0,
        "ratio": 1.773,
        "src_mix": 1,
        "zone": "LV–RU perem (tág)",
        "zone_mult": 1.12,
        "src_recent": {
          "GDELT": 0,
          "GDELT_DOC": 0,
          "DIRECT_FEED": 1,
          "USGS": 0,
          "GDACS": 0
        }
      }
    },
    {
      "type": "Feature",
      "geometry": {
        "type": "Point",
        "coordinates": [
          22.25,
          55.25
        ]
      },
      "properties": {
        "type": "early_warning",
        "escalation": 49.2,
        "cell_deg": 0.5,
        "neighbor_active": 0,
        "recent": 1.836,
        "baseline": 1.674,
        "ratio": 0.736,
        "src_mix": 1,
        "zone": "PL–BY / Suwałki környék (tág)",
        "zone_mult": 1.2,
        "src_recent": {
          "GDELT": 0,
          "GDELT_DOC": 0,
          "DIRECT_FEED": 1,
          "USGS": 0,
          "GDACS": 0
        }
      }
    }
  ]
}