{
  "type": "FeatureCollection",
  "features": [
    {
      "type": "Feature",
      "geometry": {
        "type": "Point",
        "coordinates": [
          18.0294488,
          53.1297127
        ]
      },
      "properties": {
        "source": "GDACS",
        "kind": "disaster_alert",
        "category": "natural",
        "title": "Green flood alert in Poland",
        "time": "2026-09-07T09:11:05Z",
        "url": "https://www.gdacs.org/report.aspx?eventtype=FL&amp;eventid=1104144",
        "type": "Alert"
      }
    },
    {
      "type": "Feature",
      "geometry": {
        "type": "Point",
        "coordinates": [
          22.1366723,
          56.0130975
        ]
      },
      "properties": {
        "source": "GDACS",
        "kind": "disaster_alert",
        "category": "natural",
        "title": "Green flood alert in Lithuania",
        "time": "2026-09-03T09:07:43Z",
        "url": "https://www.gdacs.org/report.aspx?eventtype=FL&amp;eventid=1104138",
        "type": "Alert"
      }
    }
  ]
}