{
  "type": "FeatureCollection",
  "features": [
    {
      "type": "Feature",
      "geometry": {
        "type": "Point",
        "coordinates": [
          26.1,
          44.43
        ]
      },
      "properties": {
        "source": "GDELT_DOC",
        "kind": "news_crossborder",
        "type": "News",
        "time": "2026-08-18T10:15:00Z",
        "title": "NATO spokesperson on the drone shot down in Romanian airspace : The drone appears to be Russian",
        "description": "actmedia.eu",
        "summary": "actmedia.eu",
        "url": "https://actmedia.eu/daily/nato-spokesperson-on-the-drone-shot-down-in-romanian-airspace-the-drone-appears-to-be-russian/121242",
        "country_hint": "Romania",
        "relation_hits": [
          "Russia",
          "Russian",
          "NATO",
          "EU"
        ],
        "category": "drone",
        "impact_mult": 1.12,
        "incident_family": "air",
        "incident_subcategory": "drone",
        "incident_subtype": "drone_shootdown",
        "incident_object": "drone",
        "incident_action": "shot_down",
        "incident_actor": "russia",
        "incident_target": "unknown",
        "severity": "high",
        "classification_confidence": 0.82,
        "matched_rule_id": "AIR.DRONE.SHOOTDOWN",
        "article_role": "incident",
        "actual_incident": true,
        "risk_eligible": true,
        "fingerprint": {
          "country": "Romania",
          "family": "air",
          "subcategory": "drone",
          "subtype": "drone_shootdown",
          "object": "drone",
          "action": "shot_down",
          "actor": "russia",
          "target": "unknown",
          "place": "Romania",
          "event_date": "2026-08-18",
          "hash": "29d311c9eecccb44272d7ae6"
        },
        "classification_source": "security_classifier",
        "classifier_version": "1.0.1",
        "taxonomy_version": "1.0.0",
        "rejection_reason": null
      }
    }
  ]
}