{
  "type": "FeatureCollection",
  "features": [
    {
      "type": "Feature",
      "geometry": {
        "type": "Point",
        "coordinates": [
          22.25,
          55.25
        ]
      },
      "properties": {
        "type": "hotspot_cell",
        "score": 2.448,
        "count": 2,
        "cell_deg": 0.5,
        "sources": {
          "GDELT": 0,
          "GDELT_DOC": 0,
          "DIRECT_FEED": 2,
          "USGS": 0,
          "GDACS": 0
        },
        "last7_score": 2.448,
        "prev7_score": 0.0,
        "trend": "new",
        "trend_arrow": "🆕",
        "change_pct": null
      }
    },
    {
      "type": "Feature",
      "geometry": {
        "type": "Point",
        "coordinates": [
          19.25,
          52.25
        ]
      },
      "properties": {
        "type": "hotspot_cell",
        "score": 1.085,
        "count": 2,
        "cell_deg": 0.5,
        "sources": {
          "GDELT": 0,
          "GDELT_DOC": 0,
          "DIRECT_FEED": 2,
          "USGS": 0,
          "GDACS": 0
        },
        "last7_score": 1.085,
        "prev7_score": 0.0,
        "trend": "new",
        "trend_arrow": "🆕",
        "change_pct": null
      }
    }
  ]
}