{
  "type": "FeatureCollection",
  "generated_utc": "2026-09-30T21:55:48.003779+00:00",
  "classifier_version": "1.0.1",
  "taxonomy_version": "1.0.0",
  "features": [
    {
      "type": "Feature",
      "geometry": {
        "type": "Point",
        "coordinates": [
          26.102,
          44.426
        ]
      },
      "properties": {
        "id": "5cd195428e3b4db1fa2f",
        "title": "INTERVIU Ce spune un lider PSD despre negocierile cu AUR, după căderea Guvernului Mureșan",
        "summary": "După ce Parlamentul a respins Guvernul Mureșan, Ionuț Pucheanu, prim-vicepreședinte al PSD, spune că există mai multe variante pentru un guvern stabil, printre care și varianta colaborării cu AUR ca ultimă soluție.&#160; &#8211; A fost respins și Guvernul Mureșan în Parlament, a doua încercare consecutivă, acum credeți președintele ar trebui mai degrabă să se îndrepte &#8230;",
        "source": "HotNews",
        "url": "https://hotnews.ro/interviu-lider-psd-despre-negocierile-cu-aur-dupa-caderea-guvernului-muresan-daca-alta-sansa-nu-e-saruti-cea-mai-urata-femeie-ce-sa-faci-2363051",
        "published": "Wed, 30 Sep 2026 16:19:02 +0000",
        "country": "Romania",
        "city": "București",
        "family": "maritime",
        "subcategory": "port_security",
        "subtype": "port_disruption",
        "object": "critical_infrastructure",
        "action": "damaged",
        "actor": "unknown",
        "target": "transport",
        "context": [],
        "consequences": [
          "injury"
        ],
        "severity": "medium",
        "confidence": 0.99,
        "article_role": "incident",
        "actual_incident": true,
        "matched_rule_id": "MARITIME.PORT.DISRUPTION",
        "fingerprint": {
          "country": "Romania",
          "family": "maritime",
          "subcategory": "port_security",
          "subtype": "port_disruption",
          "object": "critical_infrastructure",
          "action": "damaged",
          "actor": "unknown",
          "target": "transport",
          "place": "București",
          "event_date": "Wed, 30 Se",
          "hash": "7e637999679d747f54d4a1e6"
        },
        "classifier_version": "1.0.1",
        "taxonomy_version": "1.0.0",
        "matched_terms": {
          "article_role": [],
          "objects": [
            "critical_infrastructure",
            "port"
          ],
          "actions": [
            "impact",
            "căzut",
            "damaged",
            "distrus"
          ],
          "targets": [
            "transport",
            "port",
            "government",
            "parlament"
          ],
          "actors": [],
          "consequences": [
            "injury",
            "rănit"
          ],
          "extra_context": [
            "feed_country=Romania",
            "geocode_quality=city"
          ]
        },
        "negative_terms": [],
        "confidence_components": {
          "base": 0.2,
          "object_match": 0.2,
          "action_match": 0.2,
          "target_match": 0.08,
          "country_match": 0.1,
          "city_match": 0.08,
          "consequence_match": 0.08,
          "supporting_evidence": 0.06
        },
        "candidate_rules": [
          {
            "rule_id": "MARITIME.PORT.DISRUPTION",
            "family": "maritime",
            "subcategory": "port_security",
            "subtype": "port_disruption",
            "severity": "medium",
            "priority": 0,
            "score": 2.32,
            "matched": true,
            "missing": [],
            "matched_context": []
          },
          {
            "rule_id": "CRITICAL.INFRASTRUCTURE.DISRUPTION",
            "family": "critical_infrastructure",
            "subcategory": "public_services",
            "subtype": "critical_infrastructure_disruption",
            "severity": "high",
            "priority": 0,
            "score": 2.32,
            "matched": true,
            "missing": [],
            "matched_context": []
          },
          {
            "rule_id": "AIR.AIRCRAFT.INCIDENT",
            "family": "air",
            "subcategory": "aircraft",
            "subtype": "military_aircraft_incident",
            "severity": "medium",
            "priority": 0,
            "score": 1.2,
            "matched": false,
            "missing": [
              "objects:all:military_aircraft"
            ],
            "matched_context": []
          },
          {
            "rule_id": "GROUND.SABOTAGE",
            "family": "ground",
            "subcategory": "sabotage",
            "subtype": "sabotage",
            "severity": "high",
            "priority": 0,
            "score": 1.2,
            "matched": false,
            "missing": [
              "actions:all:sabotaged"
            ],
            "matched_context": []
          },
          {
            "rule_id": "AIR.DRONE.STRIKE",
            "family": "air",
            "subcategory": "drone",
            "subtype": "drone_strike",
            "severity": "high",
            "priority": 0,
            "score": 1.1,
            "matched": false,
            "missing": [
              "objects:all:drone"
            ],
            "matched_context": []
          },
          {
            "rule_id": "AIR.MISSILE.IMPACT",
            "family": "air",
            "subcategory": "missile",
            "subtype": "missile_impact",
            "severity": "high",
            "priority": 0,
            "score": 1.1,
            "matched": false,
            "missing": [
              "objects:all:missile"
            ],
            "matched_context": []
          },
          {
            "rule_id": "MARITIME.SHIP.ATTACK",
            "family": "maritime",
            "subcategory": "ship_incident",
            "subtype": "ship_attack",
            "severity": "high",
            "priority": 0,
            "score": 1.1,
            "matched": false,
            "missing": [
              "objects:all:ship"
            ],
            "matched_context": []
          },
          {
            "rule_id": "PUBLIC.ORDER.VIOLENCE",
            "family": "public_order",
            "subcategory": "violent_protest",
            "subtype": "violent_public_disorder",
            "severity": "medium",
            "priority": 0,
            "score": 1.1,
            "matched": false,
            "missing": [
              "context:any"
            ],
            "matched_context": []
          },
          {
            "rule_id": "TRANSPORT.RAIL.DISRUPTION",
            "family": "transport",
            "subcategory": "rail",
            "subtype": "rail_disruption",
            "severity": "medium",
            "priority": 0,
            "score": 1.1,
            "matched": false,
            "missing": [
              "actions:all:disrupted",
              "context:any"
            ],
            "matched_context": []
          },
          {
            "rule_id": "TRANSPORT.AVIATION.CLOSURE",
            "family": "transport",
            "subcategory": "aviation",
            "subtype": "airport_closure",
            "severity": "medium",
            "priority": 0,
            "score": 1.1,
            "matched": false,
            "missing": [
              "actions:all:closed",
              "context:any"
            ],
            "matched_context": []
          }
        ],
        "rejection_reason": null,
        "full_article_enriched": true,
        "article_text_chars": 5672,
        "article_fetch_source": "network",
        "article_text_excerpt": "După ce Parlamentul a respins Guvernul Mureșan, Ionuț Pucheanu, prim-vicepreședinte al PSD, spune că există mai multe variante pentru un guvern stabil, printre care și varianta colaborării cu AUR ca ultimă soluție. – A fost respins și Guvernul Mureșan în Parlament, a doua încercare consecutivă, acum credeți președintele ar trebui mai degrabă să se îndrepte spre noi consultări sau spre alegeri anticipate? – Eu nu cred că alegerile anticipate rezolvă problema. Nu neapărat că țin eu morțiș la vreun coleg de-al meu să nu care cumva să-și piardă chenzina, ci din perspectiva faptului că problema de bază nu se rezolvă. Ținând cum de realitățile modului în care se poziționează principalele actorii politici unul vizavi de celălalt. Văd un AUR care are toate șansele să obțină un rezultat cu trei în față, nu cu patru. Văd o alianță PNL-USR care va fi undeva în jurulul a 25%. Și vom avea un PSD care, cel mai probabil, va scoate și el, că o să ne încordăm, tot cu doi în față. Adică, practic, să sch",
        "place": "București",
        "time": "Wed, 30 Sep 2026 16:19:02 +0000",
        "category": "maritime",
        "kind": "local_media",
        "geocode_quality": "city",
        "force_included": false,
        "source_count": 1,
        "sources": [
          "HotNews"
        ],
        "urls": [
          "https://hotnews.ro/interviu-lider-psd-despre-negocierile-cu-aur-dupa-caderea-guvernului-muresan-daca-alta-sansa-nu-e-saruti-cea-mai-urata-femeie-ce-sa-faci-2363051"
        ],
        "merged_titles": [
          "INTERVIU Ce spune un lider PSD despre negocierile cu AUR, după căderea Guvernului Mureșan"
        ],
        "incident_family": "maritime",
        "incident_subcategory": "port_security",
        "incident_subtype": "port_disruption",
        "incident_object": "critical_infrastructure",
        "incident_action": "damaged",
        "incident_actor": "unknown",
        "incident_target": "transport",
        "classification_confidence": 0.99
      }
    }
  ]
}