{
  "type": "FeatureCollection",
  "features": [
    {
      "type": "Feature",
      "geometry": {
        "type": "Point",
        "coordinates": [
          27.7057,
          45.5869
        ]
      },
      "properties": {
        "source": "USGS",
        "kind": "earthquake",
        "category": "natural",
        "mag": 4.1,
        "place": "4 km ENE of Tudor Vladimirescu, Romania",
        "time": "2026-09-06T22:08:58Z",
        "url": "https://earthquake.usgs.gov/earthquakes/eventpage/us7000tgp8",
        "title": "M 4.1 - 4 km ENE of Tudor Vladimirescu, Romania",
        "type": "Earthquake"
      }
    }
  ]
}